ONEWEB-0415             
1 51624U 22012C   25300.11930355 -.00000604  00000+0 -17660-2 0  9995
2 51624  87.8769  82.7311 0001877  94.5060 265.6282 13.10372713178762
ONEWEB-0416             
1 51625U 22012D   25300.13092593 -.00000454  00000+0 -13368-2 0  9995
2 51625  87.8775  82.7495 0001598  92.9148 267.2162 13.10374915178808
ONEWEB-0422             
1 51626U 22012E   25300.02743500  .00000049  00000+0  92386-4 0  9992
2 51626  87.9123  52.2092 0001949 122.2197 237.9123 13.17649238183103
ONEWEB-0423             
1 51627U 22012F   25300.02068304  .00000029  00000+0  41303-4 0  9996
2 51627  87.9125  52.2203 0001605 103.8683 256.2627 13.17649047182991
ONEWEB-0425             
1 51628U 22012G   25300.14089256  .00000026  00000+0  39200-4 0  9999
2 51628  87.8779  82.7164 0001312  87.0093 273.1185 13.10376087178809
ONEWEB-0428             
1 51629U 22012H   25300.12096346 -.00000599  00000+0 -17531-2 0  9994
2 51629  87.8769  82.7417 0001663 101.4279 258.7035 13.10372768178766
ONEWEB-0431             
1 51630U 22012J   25300.16732215  .00000473  00000+0  13176-2 0  9992
2 51630  87.8776  82.7080 0002273  99.9102 260.2282 13.10370539178829
ONEWEB-0434             
1 51631U 22012K   25300.14421463  .00000242  00000+0  65715-3 0  9992
2 51631  87.8775  82.7519 0001072  79.0548 281.0700 13.10375069178802
